{"fetched_at":"2026-07-05T12:47:17.871Z","source":"https://celestrak.org/NORAD/elements/gp.php?GROUP=oneweb&FORMAT=JSON","constellation":"oneweb","records":[{"OBJECT_NAME":"ONEWEB-0597","OBJECT_ID":"2022-166X","EPOCH":"2026-07-05T01:49:52.475520","CLASSIFICATION_TYPE":"U","MEAN_MOTION":13.21827778,"ECCENTRICITY":0.00019505,"INCLINATION":87.9238,"RA_OF_ASC_NODE":240.4276,"ARG_OF_PERICENTER":94.6487,"MEAN_ANOMALY":265.487,"EPHEMERIS_TYPE":0,"NORAD_CAT_ID":54663,"ELEMENT_SET_NO":999,"REV_AT_EPOCH":17390,"BSTAR":0.000027359699,"MEAN_MOTION_DOT":2.4e-7,"MEAN_MOTION_DDOT":0},{"OBJECT_NAME":"ONEWEB-0600","OBJECT_ID":"2022-166Y","EPOCH":"2026-07-04T16:18:14.732352","CLASSIFICATION_TYPE":"U","MEAN_MOTION":13.21825848,"ECCENTRICITY":0.00018659,"INCLINATION":87.9239,"RA_OF_ASC_NODE":240.4985,"ARG_OF_PERICENTER":102.3152,"MEAN_ANOMALY":257.8191,"EPHEMERIS_TYPE":0,"NORAD_CAT_ID":54664,"ELEMENT_SET_NO":999,"REV_AT_EPOCH":17382,"BSTAR":0.000024949801,"MEAN_MOTION_DOT":2.3e-7,"MEAN_MOTION_DDOT":0},{"OBJECT_NAME":"ONEWEB-0601","OBJECT_ID":"2022-166Z","EPOCH":"2026-07-05T03:00:07.830432","CLASSIFICATION_TYPE":"U","MEAN_MOTION":13.21824696,"ECCENTRICITY":0.00017948,"INCLINATION":87.9239,"RA_OF_ASC_NODE":240.425,"ARG_OF_PERICENTER":90.2592,"MEAN_ANOMALY":269.8748,"EPHEMERIS_TYPE":0,"NORAD_CAT_ID":54665,"ELEMENT_SET_NO":999,"REV_AT_EPOCH":17407,"BSTAR":-0.00009347806,"MEAN_MOTION_DOT":-2.6e-7,"MEAN_MOTION_DDOT":0},{"OBJECT_NAME":"ONEWEB-0602","OBJECT_ID":"2022-166AA","EPOCH":"2026-07-04T20:43:27.193152","CLASSIFICATION_TYPE":"U","MEAN_MOTION":13.21827773,"ECCENTRICITY":0.00018403,"INCLINATION":87.924,"RA_OF_ASC_NODE":240.4833,"ARG_OF_PERICENTER":100.6411,"MEAN_ANOMALY":259.493,"EPHEMERIS_TYPE":0,"NORAD_CAT_ID":54666,"ELEMENT_SET_NO":999,"REV_AT_EPOCH":17388,"BSTAR":-0.000016441616,"MEAN_MOTION_DOT":6e-8,"MEAN_MOTION_DDOT":0},{"OBJECT_NAME":"ONEWEB-0603","OBJECT_ID":"2022-166AB","EPOCH":"2026-07-04T17:13:56.173728","CLASSIFICATION_TYPE":"U","MEAN_MOTION":13.21827333,"ECCENTRICITY":0.00019628,"INCLINATION":87.9251,"RA_OF_ASC_NODE":240.4712,"ARG_OF_PERICENTER":96.1343,"MEAN_ANOMALY":264.0014,"EPHEMERIS_TYPE":0,"NORAD_CAT_ID":54667,"ELEMENT_SET_NO":999,"REV_AT_EPOCH":17379,"BSTAR":-0.000094963716,"MEAN_MOTION_DOT":-2.6e-7,"MEAN_MOTION_DDOT":0},{"OBJECT_NAME":"ONEWEB-0604","OBJECT_ID":"2022-166AC","EPOCH":"2026-07-05T03:50:58.203168","CLASSIFICATION_TYPE":"U","MEAN_MOTION":13.21823691,"ECCENTRICITY":0.00020809,"INCLINATION":87.9248,"RA_OF_ASC_NODE":240.3986,"ARG_OF_PERICENTER":99.3169,"MEAN_ANOMALY":260.82,"EPHEMERIS_TYPE":0,"NORAD_CAT_ID":54668,"ELEMENT_SET_NO":999,"REV_AT_EPOCH":17381,"BSTAR":0.000034421136,"MEAN_MOTION_DOT":2.7e-7,"MEAN_MOTION_DDOT":0},{"OBJECT_NAME":"ONEWEB-0605","OBJECT_ID":"2022-166AD","EPOCH":"2026-07-05T01:52:18.140736","CLASSIFICATION_TYPE":"U","MEAN_MOTION":13.2182752,"ECCENTRICITY":0.00021597,"INCLINATION":87.9241,"RA_OF_ASC_NODE":240.4269,"ARG_OF_PERICENTER":79.9693,"MEAN_ANOMALY":280.1685,"EPHEMERIS_TYPE":0,"NORAD_CAT_ID":54669,"ELEMENT_SET_NO":999,"REV_AT_EPOCH":17387,"BSTAR":-0.0000043693,"MEAN_MOTION_DOT":1.1e-7,"MEAN_MOTION_DDOT":0},{"OBJECT_NAME":"ONEWEB-0606","OBJECT_ID":"2022-166AE","EPOCH":"2026-07-04T15:29:46.368384","CLASSIFICATION_TYPE":"U","MEAN_MOTION":13.21825141,"ECCENTRICITY":0.00020999,"INCLINATION":87.9242,"RA_OF_ASC_NODE":240.5254,"ARG_OF_PERICENTER":101.335,"MEAN_ANOMALY":258.802,"EPHEMERIS_TYPE":0,"NORAD_CAT_ID":54670,"ELEMENT_SET_NO":999,"REV_AT_EPOCH":17387,"BSTAR":0.00014480982,"MEAN_MOTION_DOT":7.3e-7,"MEAN_MOTION_DDOT":0},{"OBJECT_NAME":"ONEWEB-0607","OBJECT_ID":"2022-166AF","EPOCH":"2026-07-04T21:57:21.959136","CLASSIFICATION_TYPE":"U","MEAN_MOTION":13.21825264,"ECCENTRICITY":0.000193,"INCLINATION":87.9242,"RA_OF_ASC_NODE":240.4441,"ARG_OF_PERICENTER":96.4524,"MEAN_ANOMALY":263.683,"EPHEMERIS_TYPE":0,"NORAD_CAT_ID":54671,"ELEMENT_SET_NO":999,"REV_AT_EPOCH":17388,"BSTAR":-0.00015361075,"MEAN_MOTION_DOT":-5e-7,"MEAN_MOTION_DDOT":0},{"OBJECT_NAME":"ONEWEB-0608","OBJECT_ID":"2022-166AG","EPOCH":"2026-07-05T01:45:00.262080","CLASSIFICATION_TYPE":"U","MEAN_MOTION":13.21823419,"ECCENTRICITY":0.00019114,"INCLINATION":87.9251,"RA_OF_ASC_NODE":240.4098,"ARG_OF_PERICENTER":82.6228,"MEAN_ANOMALY":277.5123,"EPHEMERIS_TYPE":0,"NORAD_CAT_ID":54672,"ELEMENT_SET_NO":999,"REV_AT_EPOCH":17391,"BSTAR":0.000063565257,"MEAN_MOTION_DOT":3.9e-7,"MEAN_MOTION_DDOT":0},{"OBJECT_NAME":"ONEWEB-0610","OBJECT_ID":"2022-166AH","EPOCH":"2026-07-05T03:04:59.756160","CLASSIFICATION_TYPE":"U","MEAN_MOTION":13.21824882,"ECCENTRICITY":0.00015958,"INCLINATION":87.9238,"RA_OF_ASC_NODE":240.4112,"ARG_OF_PERICENTER":82.891,"MEAN_ANOMALY":277.2406,"EPHEMERIS_TYPE":0,"NORAD_CAT_ID":54673,"ELEMENT_SET_NO":999,"REV_AT_EPOCH":17382,"BSTAR":-0.000094401048,"MEAN_MOTION_DOT":-2.6e-7,"MEAN_MOTION_DDOT":0},{"OBJECT_NAME":"ONEWEB-0611","OBJECT_ID":"2022-166AJ","EPOCH":"2026-07-05T02:55:16.511232","CLASSIFICATION_TYPE":"U","MEAN_MOTION":13.21825819,"ECCENTRICITY":0.00021741,"INCLINATION":87.9239,"RA_OF_ASC_NODE":240.4083,"ARG_OF_PERICENTER":99.641,"MEAN_ANOMALY":260.497,"EPHEMERIS_TYPE":0,"NORAD_CAT_ID":54674,"ELEMENT_SET_NO":999,"REV_AT_EPOCH":17381,"BSTAR":-0.0000096871,"MEAN_MOTION_DOT":9e-8,"MEAN_MOTION_DDOT":0},{"OBJECT_NAME":"ONEWEB-0612","OBJECT_ID":"2022-166AK","EPOCH":"2026-07-04T21:47:40.391232","CLASSIFICATION_TYPE":"U","MEAN_MOTION":13.21825714,"ECCENTRICITY":0.00019252,"INCLINATION":87.9253,"RA_OF_ASC_NODE":240.4483,"ARG_OF_PERICENTER":93.1613,"MEAN_ANOMALY":266.9741,"EPHEMERIS_TYPE":0,"NORAD_CAT_ID":54675,"ELEMENT_SET_NO":999,"REV_AT_EPOCH":17377,"BSTAR":0.000054596133,"MEAN_MOTION_DOT":3.6e-7,"MEAN_MOTION_DDOT":0},{"OBJECT_NAME":"ONEWEB-0615","OBJECT_ID":"2022-166AL","EPOCH":"2026-07-05T06:23:35.911104","CLASSIFICATION_TYPE":"U","MEAN_MOTION":13.2182764,"ECCENTRICITY":0.00021664,"INCLINATION":87.9243,"RA_OF_ASC_NODE":240.39,"ARG_OF_PERICENTER":104.1994,"MEAN_ANOMALY":255.9381,"EPHEMERIS_TYPE":0,"NORAD_CAT_ID":54676,"ELEMENT_SET_NO":999,"REV_AT_EPOCH":17383,"BSTAR":0.00018088695,"MEAN_MOTION_DOT":8.8e-7,"MEAN_MOTION_DDOT":0},{"OBJECT_NAME":"ONEWEB-0655","OBJECT_ID":"2022-166AM","EPOCH":"2026-07-05T04:00:40.751712","CLASSIFICATION_TYPE":"U","MEAN_MOTION":13.21827868,"ECCENTRICITY":0.00017984,"INCLINATION":87.9242,"RA_OF_ASC_NODE":240.4106,"ARG_OF_PERICENTER":99.5092,"MEAN_ANOMALY":260.6245,"EPHEMERIS_TYPE":0,"NORAD_CAT_ID":54677,"ELEMENT_SET_NO":999,"REV_AT_EPOCH":17381,"BSTAR":0.00002542433,"MEAN_MOTION_DOT":2.4e-7,"MEAN_MOTION_DDOT":0},{"OBJECT_NAME":"ONEWEB-0659","OBJECT_ID":"2022-166AN","EPOCH":"2026-07-04T15:41:52.757376","CLASSIFICATION_TYPE":"U","MEAN_MOTION":13.21829159,"ECCENTRICITY":0.00021302,"INCLINATION":87.9239,"RA_OF_ASC_NODE":240.5126,"ARG_OF_PERICENTER":96.6193,"MEAN_ANOMALY":263.5183,"EPHEMERIS_TYPE":0,"NORAD_CAT_ID":54678,"ELEMENT_SET_NO":999,"REV_AT_EPOCH":17383,"BSTAR":0.00011501701,"MEAN_MOTION_DOT":6.1e-7,"MEAN_MOTION_DDOT":0}]}
