ONEWEB-0597             
1 54663U 22166X   26186.07630180  .00000024  00000+0  27360-4 0  9996
2 54663  87.9238 240.4276 0001950  94.6487 265.4870 13.21827778173909
ONEWEB-0600             
1 54664U 22166Y   26185.67933718  .00000023  00000+0  24950-4 0  9996
2 54664  87.9239 240.4985 0001865 102.3152 257.8191 13.21825848173827
ONEWEB-0601             
1 54665U 22166Z   26186.12509063 -.00000026  00000+0 -93478-4 0  9996
2 54665  87.9239 240.4250 0001794  90.2592 269.8748 13.21824696174076
ONEWEB-0602             
1 54666U 22166AA  26185.86350918  .00000006  00000+0 -16442-4 0  9993
2 54666  87.9240 240.4833 0001840 100.6411 259.4930 13.21827773173889
ONEWEB-0603             
1 54667U 22166AB  26185.71801127 -.00000026  00000+0 -94964-4 0  9999
2 54667  87.9251 240.4712 0001962  96.1343 264.0014 13.21827333173793
ONEWEB-0604             
1 54668U 22166AC  26186.16039587  .00000027  00000+0  34421-4 0  9994
2 54668  87.9248 240.3986 0002080  99.3169 260.8200 13.21823691173812
ONEWEB-0605             
1 54669U 22166AD  26186.07798774  .00000011  00000+0 -43693-5 0  9991
2 54669  87.9241 240.4269 0002159  79.9693 280.1685 13.21827520173877
ONEWEB-0606             
1 54670U 22166AE  26185.64567556  .00000073  00000+0  14481-3 0  9995
2 54670  87.9242 240.5254 0002099 101.3350 258.8020 13.21825141173870
ONEWEB-0607             
1 54671U 22166AF  26185.91483749 -.00000050  00000+0 -15361-3 0  9992
2 54671  87.9242 240.4441 0001930  96.4524 263.6830 13.21825264173888
ONEWEB-0608             
1 54672U 22166AG  26186.07291970  .00000039  00000+0  63565-4 0  9999
2 54672  87.9251 240.4098 0001911  82.6228 277.5123 13.21823419173917
ONEWEB-0610             
1 54673U 22166AH  26186.12846940 -.00000026  00000+0 -94401-4 0  9990
2 54673  87.9238 240.4112 0001595  82.8910 277.2406 13.21824882173824
ONEWEB-0611             
1 54674U 22166AJ  26186.12171888  .00000009  00000+0 -96871-5 0  9997
2 54674  87.9239 240.4083 0002174  99.6410 260.4970 13.21825819173818
ONEWEB-0612             
1 54675U 22166AK  26185.90810638  .00000036  00000+0  54596-4 0  9992
2 54675  87.9253 240.4483 0001925  93.1613 266.9741 13.21825714173772
ONEWEB-0615             
1 54676U 22166AL  26186.26638786  .00000088  00000+0  18089-3 0  9998
2 54676  87.9243 240.3900 0002166 104.1994 255.9381 13.21827640173833
ONEWEB-0655             
1 54677U 22166AM  26186.16713833  .00000024  00000+0  25424-4 0  9997
2 54677  87.9242 240.4106 0001798  99.5092 260.6245 13.21827868173810
ONEWEB-0659             
1 54678U 22166AN  26185.65408284  .00000061  00000+0  11502-3 0  9994
2 54678  87.9239 240.5126 0002130  96.6193 263.5183 13.21829159173831
